[{"OBJECT_NAME":"ONEWEB-0656","OBJECT_ID":"2023-029X","EPOCH":"2025-09-16T04:36:08.725824","MEAN_MOTION":13.20769595,"ECCENTRICITY":0.0002339,"INCLINATION":87.9278,"RA_OF_ASC_NODE":329.05,"ARG_OF_PERICENTER":93.8879,"MEAN_ANOMALY":266.2521,"EPHEMERIS_TYPE":0,"CLASSIFICATION_TYPE":"U","NORAD_CAT_ID":55817,"ELEMENT_SET_NO":999,"REV_AT_EPOCH":12498,"BSTAR":-3.3660312e-5,"MEAN_MOTION_DOT":-1.0e-8,"MEAN_MOTION_DDOT":0},{"OBJECT_NAME":"ONEWEB-0657","OBJECT_ID":"2023-029Y","EPOCH":"2025-09-16T07:09:53.840448","MEAN_MOTION":13.19727346,"ECCENTRICITY":0.00025041,"INCLINATION":87.928,"RA_OF_ASC_NODE":359.4555,"ARG_OF_PERICENTER":112.078,"MEAN_ANOMALY":248.0619,"EPHEMERIS_TYPE":0,"CLASSIFICATION_TYPE":"U","NORAD_CAT_ID":55818,"ELEMENT_SET_NO":999,"REV_AT_EPOCH":12278,"BSTAR":0.00029471866,"MEAN_MOTION_DOT":1.31e-6,"MEAN_MOTION_DDOT":0},{"OBJECT_NAME":"ONEWEB-0658","OBJECT_ID":"2023-029Z","EPOCH":"2025-09-16T05:13:54.202080","MEAN_MOTION":13.19726653,"ECCENTRICITY":0.00014337,"INCLINATION":87.9296,"RA_OF_ASC_NODE":359.4099,"ARG_OF_PERICENTER":111.3118,"MEAN_ANOMALY":248.8168,"EPHEMERIS_TYPE":0,"CLASSIFICATION_TYPE":"U","NORAD_CAT_ID":55819,"ELEMENT_SET_NO":999,"REV_AT_EPOCH":12278,"BSTAR":0.00022806592,"MEAN_MOTION_DOT":1.04e-6,"MEAN_MOTION_DDOT":0},{"OBJECT_NAME":"ONEWEB-0660","OBJECT_ID":"2023-029AA","EPOCH":"2025-09-16T06:06:59.239584","MEAN_MOTION":13.14504753,"ECCENTRICITY":0.000155,"INCLINATION":87.9092,"RA_OF_ASC_NODE":344.2285,"ARG_OF_PERICENTER":92.7971,"MEAN_ANOMALY":267.3336,"EPHEMERIS_TYPE":0,"CLASSIFICATION_TYPE":"U","NORAD_CAT_ID":55820,"ELEMENT_SET_NO":999,"REV_AT_EPOCH":12341,"BSTAR":-0.00017393389,"MEAN_MOTION_DOT":-5.2e-7,"MEAN_MOTION_DDOT":0},{"OBJECT_NAME":"ONEWEB-0661","OBJECT_ID":"2023-029AB","EPOCH":"2025-09-15T18:09:59.046624","MEAN_MOTION":13.14503882,"ECCENTRICITY":0.00016549,"INCLINATION":87.9087,"RA_OF_ASC_NODE":344.3988,"ARG_OF_PERICENTER":89.6334,"MEAN_ANOMALY":270.4985,"EPHEMERIS_TYPE":0,"CLASSIFICATION_TYPE":"U","NORAD_CAT_ID":55821,"ELEMENT_SET_NO":999,"REV_AT_EPOCH":12333,"BSTAR":0.00030942471,"MEAN_MOTION_DOT":1.27e-6,"MEAN_MOTION_DDOT":0},{"OBJECT_NAME":"ONEWEB-0662","OBJECT_ID":"2023-029AC","EPOCH":"2025-09-16T04:08:15.435168","MEAN_MOTION":13.14503972,"ECCENTRICITY":0.00015057,"INCLINATION":87.9083,"RA_OF_ASC_NODE":344.3224,"ARG_OF_PERICENTER":95.2661,"MEAN_ANOMALY":264.864,"EPHEMERIS_TYPE":0,"CLASSIFICATION_TYPE":"U","NORAD_CAT_ID":55822,"ELEMENT_SET_NO":999,"REV_AT_EPOCH":12343,"BSTAR":-2.1250773e-5,"MEAN_MOTION_DOT":5.0e-8,"MEAN_MOTION_DDOT":0},{"OBJECT_NAME":"ONEWEB-0663","OBJECT_ID":"2023-029AD","EPOCH":"2025-09-16T04:01:54.877728","MEAN_MOTION":13.20845796,"ECCENTRICITY":0.00014528,"INCLINATION":87.9289,"RA_OF_ASC_NODE":329.113,"ARG_OF_PERICENTER":95.9061,"MEAN_ANOMALY":264.2238,"EPHEMERIS_TYPE":0,"CLASSIFICATION_TYPE":"U","NORAD_CAT_ID":55823,"ELEMENT_SET_NO":999,"REV_AT_EPOCH":12497,"BSTAR":-0.00011462931,"MEAN_MOTION_DOT":-3.4e-7,"MEAN_MOTION_DDOT":0},{"OBJECT_NAME":"ONEWEB-0664","OBJECT_ID":"2023-029AE","EPOCH":"2025-09-16T04:17:58.809696","MEAN_MOTION":13.20770753,"ECCENTRICITY":0.00019549,"INCLINATION":87.9275,"RA_OF_ASC_NODE":329.1304,"ARG_OF_PERICENTER":86.7807,"MEAN_ANOMALY":273.355,"EPHEMERIS_TYPE":0,"CLASSIFICATION_TYPE":"U","NORAD_CAT_ID":55824,"ELEMENT_SET_NO":999,"REV_AT_EPOCH":12497,"BSTAR":-0.0001017884,"MEAN_MOTION_DOT":-2.8e-7,"MEAN_MOTION_DDOT":0},{"OBJECT_NAME":"ONEWEB-0665","OBJECT_ID":"2023-029AF","EPOCH":"2025-09-16T05:03:03.517632","MEAN_MOTION":13.14503957,"ECCENTRICITY":0.00015971,"INCLINATION":87.9092,"RA_OF_ASC_NODE":344.2844,"ARG_OF_PERICENTER":97.767,"MEAN_ANOMALY":262.3642,"EPHEMERIS_TYPE":0,"CLASSIFICATION_TYPE":"U","NORAD_CAT_ID":55825,"ELEMENT_SET_NO":999,"REV_AT_EPOCH":12341,"BSTAR":2.7634748e-5,"MEAN_MOTION_DOT":2.3e-7,"MEAN_MOTION_DDOT":0},{"OBJECT_NAME":"ONEWEB-0666","OBJECT_ID":"2023-029AG","EPOCH":"2025-09-15T22:41:37.278240","MEAN_MOTION":13.20771553,"ECCENTRICITY":0.0002579,"INCLINATION":87.9275,"RA_OF_ASC_NODE":329.1645,"ARG_OF_PERICENTER":108.1781,"MEAN_ANOMALY":251.9634,"EPHEMERIS_TYPE":0,"CLASSIFICATION_TYPE":"U","NORAD_CAT_ID":55826,"ELEMENT_SET_NO":999,"REV_AT_EPOCH":12495,"BSTAR":-3.5833511e-5,"MEAN_MOTION_DOT":-2.0e-8,"MEAN_MOTION_DDOT":0},{"OBJECT_NAME":"ONEWEB-0667","OBJECT_ID":"2023-029AH","EPOCH":"2025-09-16T03:59:47.741856","MEAN_MOTION":13.20770816,"ECCENTRICITY":0.00017442,"INCLINATION":87.9275,"RA_OF_ASC_NODE":329.0485,"ARG_OF_PERICENTER":94.6603,"MEAN_ANOMALY":265.4729,"EPHEMERIS_TYPE":0,"CLASSIFICATION_TYPE":"U","NORAD_CAT_ID":55827,"ELEMENT_SET_NO":999,"REV_AT_EPOCH":12497,"BSTAR":-4.2313412e-5,"MEAN_MOTION_DOT":-4.0e-8,"MEAN_MOTION_DDOT":0},{"OBJECT_NAME":"ONEWEB-0669","OBJECT_ID":"2023-029AJ","EPOCH":"2025-09-16T03:52:58.431360","MEAN_MOTION":13.20769523,"ECCENTRICITY":0.00024987,"INCLINATION":87.9278,"RA_OF_ASC_NODE":329.0891,"ARG_OF_PERICENTER":88.799,"MEAN_ANOMALY":271.343,"EPHEMERIS_TYPE":0,"CLASSIFICATION_TYPE":"U","NORAD_CAT_ID":55828,"ELEMENT_SET_NO":999,"REV_AT_EPOCH":12497,"BSTAR":0.00014223621,"MEAN_MOTION_DOT":7.1e-7,"MEAN_MOTION_DDOT":0},{"OBJECT_NAME":"ONEWEB-0670","OBJECT_ID":"2023-029AK","EPOCH":"2025-09-16T04:31:06.030336","MEAN_MOTION":13.14503596,"ECCENTRICITY":0.00017248,"INCLINATION":87.909,"RA_OF_ASC_NODE":344.309,"ARG_OF_PERICENTER":87.5224,"MEAN_ANOMALY":272.6103,"EPHEMERIS_TYPE":0,"CLASSIFICATION_TYPE":"U","NORAD_CAT_ID":55829,"ELEMENT_SET_NO":999,"REV_AT_EPOCH":12343,"BSTAR":-0.00023308635,"MEAN_MOTION_DOT":-7.4e-7,"MEAN_MOTION_DDOT":0},{"OBJECT_NAME":"ONEWEB-0671","OBJECT_ID":"2023-029AL","EPOCH":"2025-09-16T06:56:15.028512","MEAN_MOTION":13.1972506,"ECCENTRICITY":0.00016976,"INCLINATION":87.9282,"RA_OF_ASC_NODE":359.4499,"ARG_OF_PERICENTER":95.3501,"MEAN_ANOMALY":264.7825,"EPHEMERIS_TYPE":0,"CLASSIFICATION_TYPE":"U","NORAD_CAT_ID":55830,"ELEMENT_SET_NO":999,"REV_AT_EPOCH":12277,"BSTAR":0.00011639919,"MEAN_MOTION_DOT":6.0e-7,"MEAN_MOTION_DDOT":0},{"OBJECT_NAME":"ONEWEB-0672","OBJECT_ID":"2023-029AM","EPOCH":"2025-09-15T22:18:52.252416","MEAN_MOTION":13.20772956,"ECCENTRICITY":0.00022036,"INCLINATION":87.9271,"RA_OF_ASC_NODE":329.1182,"ARG_OF_PERICENTER":100.7281,"MEAN_ANOMALY":259.41,"EPHEMERIS_TYPE":0,"CLASSIFICATION_TYPE":"U","NORAD_CAT_ID":55831,"ELEMENT_SET_NO":999,"REV_AT_EPOCH":12494,"BSTAR":7.6659943e-5,"MEAN_MOTION_DOT":4.4e-7,"MEAN_MOTION_DDOT":0},{"OBJECT_NAME":"ONEWEB-0673","OBJECT_ID":"2023-029AN","EPOCH":"2025-09-16T06:22:07.731264","MEAN_MOTION":13.19725168,"ECCENTRICITY":0.00016429,"INCLINATION":87.9294,"RA_OF_ASC_NODE":359.4216,"ARG_OF_PERICENTER":104.0575,"MEAN_ANOMALY":256.074,"EPHEMERIS_TYPE":0,"CLASSIFICATION_TYPE":"U","NORAD_CAT_ID":55832,"ELEMENT_SET_NO":999,"REV_AT_EPOCH":12277,"BSTAR":-4.6241354e-5,"MEAN_MOTION_DOT":-6.0e-8,"MEAN_MOTION_DDOT":0}]
