ONEWEB-0656             
1 55817U 23029X   25259.19176766 -.00000001  00000+0 -33660-4 0  9992
2 55817  87.9278 329.0500 0002339  93.8879 266.2521 13.20769595124984
ONEWEB-0657             
1 55818U 23029Y   25259.29853982  .00000131  00000+0  29472-3 0  9993
2 55818  87.9280 359.4555 0002504 112.0780 248.0619 13.19727346122782
ONEWEB-0658             
1 55819U 23029Z   25259.21798845  .00000104  00000+0  22807-3 0  9997
2 55819  87.9296 359.4099 0001433 111.3118 248.8168 13.19726653122787
ONEWEB-0660             
1 55820U 23029AA  25259.25485231 -.00000052  00000+0 -17393-3 0  9993
2 55820  87.9092 344.2285 0001550  92.7971 267.3336 13.14504753123415
ONEWEB-0661             
1 55821U 23029AB  25258.75693341  .00000127  00000+0  30942-3 0  9997
2 55821  87.9087 344.3988 0001654  89.6334 270.4985 13.14503882123332
ONEWEB-0662             
1 55822U 23029AC  25259.17240087  .00000005  00000+0 -21251-4 0  9990
2 55822  87.9083 344.3224 0001505  95.2661 264.8640 13.14503972123439
ONEWEB-0663             
1 55823U 23029AD  25259.16799627 -.00000034  00000+0 -11463-3 0  9995
2 55823  87.9289 329.1130 0001452  95.9061 264.2238 13.20845796124974
ONEWEB-0664             
1 55824U 23029AE  25259.17915289 -.00000028  00000+0 -10179-3 0  9997
2 55824  87.9275 329.1304 0001954  86.7807 273.3550 13.20770753124974
ONEWEB-0665             
1 55825U 23029AF  25259.21045738  .00000023  00000+0  27635-4 0  9995
2 55825  87.9092 344.2844 0001597  97.7670 262.3642 13.14503957123413
ONEWEB-0666             
1 55826U 23029AG  25258.94557035 -.00000002  00000+0 -35834-4 0  9992
2 55826  87.9275 329.1645 0002579 108.1781 251.9634 13.20771553124950
ONEWEB-0667             
1 55827U 23029AH  25259.16652479 -.00000004  00000+0 -42313-4 0  9998
2 55827  87.9275 329.0485 0001744  94.6603 265.4729 13.20770816124975
ONEWEB-0669             
1 55828U 23029AJ  25259.16178740  .00000071  00000+0  14224-3 0  9994
2 55828  87.9278 329.0891 0002498  88.7990 271.3430 13.20769523124978
ONEWEB-0670             
1 55829U 23029AK  25259.18826424 -.00000074  00000+0 -23309-3 0  9995
2 55829  87.9090 344.3090 0001724  87.5224 272.6103 13.14503596123430
ONEWEB-0671             
1 55830U 23029AL  25259.28906283  .00000060  00000+0  11640-3 0  9998
2 55830  87.9282 359.4499 0001697  95.3501 264.7825 13.19725060122775
ONEWEB-0672             
1 55831U 23029AM  25258.92977144  .00000044  00000+0  76660-4 0  9999
2 55831  87.9271 329.1182 0002203 100.7281 259.4100 13.20772956124943
ONEWEB-0673             
1 55832U 23029AN  25259.26536726 -.00000006  00000+0 -46241-4 0  9997
2 55832  87.9294 359.4216 0001642 104.0575 256.0740 13.19725168122775
